CCSDS_OMM_VERS = 2.0
CREATION_DATE  = 
ORIGINATOR     = 

OBJECT_NAME    = STARLINK-36932
OBJECT_ID      = 2026-059L
CENTER_NAME    = EARTH
REF_FRAME      = TEME
TIME_SYSTEM    = UTC
MEAN_ELEMENT_THEORY = SGP/SGP4

EPOCH          = 2026-04-05T05:42:09.084960
MEAN_MOTION    = 15.80945196
ECCENTRICITY   = .00002606
INCLINATION    = 53.1602
RA_OF_ASC_NODE = 229.7554
ARG_OF_PERICENTER = 83.5120
MEAN_ANOMALY   = 276.5932

EPHEMERIS_TYPE = 0
CLASSIFICATION_TYPE = U
NORAD_CAT_ID   = 68331
ELEMENT_SET_NO = 999
REV_AT_EPOCH   = 217
BSTAR          = .16604833E-2
MEAN_MOTION_DOT = .341482E-2
MEAN_MOTION_DDOT = 0

CCSDS_OMM_VERS = 2.0
CREATION_DATE  = 
ORIGINATOR     = 

OBJECT_NAME    = STARLINK-37205
OBJECT_ID      = 2026-059M
CENTER_NAME    = EARTH
REF_FRAME      = TEME
TIME_SYSTEM    = UTC
MEAN_ELEMENT_THEORY = SGP/SGP4

EPOCH          = 2026-04-05T05:41:04.059456
MEAN_MOTION    = 15.80937522
ECCENTRICITY   = .00004888
INCLINATION    = 53.1603
RA_OF_ASC_NODE = 229.7507
ARG_OF_PERICENTER = 15.6177
MEAN_ANOMALY   = 344.4860

EPHEMERIS_TYPE = 0
CLASSIFICATION_TYPE = U
NORAD_CAT_ID   = 68332
ELEMENT_SET_NO = 999
REV_AT_EPOCH   = 217
BSTAR          = .14594566E-2
MEAN_MOTION_DOT = .298426E-2
MEAN_MOTION_DDOT = 0

CCSDS_OMM_VERS = 2.0
CREATION_DATE  = 
ORIGINATOR     = 

OBJECT_NAME    = STARLINK-37180
OBJECT_ID      = 2026-059N
CENTER_NAME    = EARTH
REF_FRAME      = TEME
TIME_SYSTEM    = UTC
MEAN_ELEMENT_THEORY = SGP/SGP4

EPOCH          = 2026-04-05T05:39:59.044320
MEAN_MOTION    = 15.80943696
ECCENTRICITY   = .00012417
INCLINATION    = 53.1603
RA_OF_ASC_NODE = 229.7456
ARG_OF_PERICENTER = 9.4791
MEAN_ANOMALY   = 350.6255

EPHEMERIS_TYPE = 0
CLASSIFICATION_TYPE = U
NORAD_CAT_ID   = 68333
ELEMENT_SET_NO = 999
REV_AT_EPOCH   = 217
BSTAR          = .1478386E-2
MEAN_MOTION_DOT = .302525E-2
MEAN_MOTION_DDOT = 0

CCSDS_OMM_VERS = 2.0
CREATION_DATE  = 
ORIGINATOR     = 

OBJECT_NAME    = STARLINK-37191
OBJECT_ID      = 2026-059P
CENTER_NAME    = EARTH
REF_FRAME      = TEME
TIME_SYSTEM    = UTC
MEAN_ELEMENT_THEORY = SGP/SGP4

EPOCH          = 2026-04-05T05:38:54.252096
MEAN_MOTION    = 15.80918214
ECCENTRICITY   = .00003722
INCLINATION    = 53.1603
RA_OF_ASC_NODE = 229.7398
ARG_OF_PERICENTER = 179.6186
MEAN_ANOMALY   = 180.4838

EPHEMERIS_TYPE = 0
CLASSIFICATION_TYPE = U
NORAD_CAT_ID   = 68334
ELEMENT_SET_NO = 999
REV_AT_EPOCH   = 217
BSTAR          = .11899726E-2
MEAN_MOTION_DOT = .241354E-2
MEAN_MOTION_DDOT = 0

CCSDS_OMM_VERS = 2.0
CREATION_DATE  = 
ORIGINATOR     = 

OBJECT_NAME    = STARLINK-37217
OBJECT_ID      = 2026-059Q
CENTER_NAME    = EARTH
REF_FRAME      = TEME
TIME_SYSTEM    = UTC
MEAN_ELEMENT_THEORY = SGP/SGP4

EPOCH          = 2026-04-05T05:37:48.850752
MEAN_MOTION    = 15.80931454
ECCENTRICITY   = .0000572
INCLINATION    = 53.1600
RA_OF_ASC_NODE = 229.7349
ARG_OF_PERICENTER = 16.6181
MEAN_ANOMALY   = 343.4860

EPHEMERIS_TYPE = 0
CLASSIFICATION_TYPE = U
NORAD_CAT_ID   = 68335
ELEMENT_SET_NO = 999
REV_AT_EPOCH   = 217
BSTAR          = .13082261E-2
MEAN_MOTION_DOT = .266348E-2
MEAN_MOTION_DDOT = 0

CCSDS_OMM_VERS = 2.0
CREATION_DATE  = 
ORIGINATOR     = 

OBJECT_NAME    = STARLINK-37143
OBJECT_ID      = 2026-059R
CENTER_NAME    = EARTH
REF_FRAME      = TEME
TIME_SYSTEM    = UTC
MEAN_ELEMENT_THEORY = SGP/SGP4

EPOCH          = 2026-04-05T02:34:41.326464
MEAN_MOTION    = 15.80995361
ECCENTRICITY   = .0002238
INCLINATION    = 53.1599
RA_OF_ASC_NODE = 230.3637
ARG_OF_PERICENTER = 80.4480
MEAN_ANOMALY   = 279.6796

EPHEMERIS_TYPE = 0
CLASSIFICATION_TYPE = U
NORAD_CAT_ID   = 68336
ELEMENT_SET_NO = 999
REV_AT_EPOCH   = 215
BSTAR          = .2492074E-2
MEAN_MOTION_DOT = .525197E-2
MEAN_MOTION_DDOT = 0

CCSDS_OMM_VERS = 2.0
CREATION_DATE  = 
ORIGINATOR     = 

OBJECT_NAME    = STARLINK-36237
OBJECT_ID      = 2026-059S
CENTER_NAME    = EARTH
REF_FRAME      = TEME
TIME_SYSTEM    = UTC
MEAN_ELEMENT_THEORY = SGP/SGP4

EPOCH          = 2026-04-05T05:35:39.790752
MEAN_MOTION    = 15.80959182
ECCENTRICITY   = .00005336
INCLINATION    = 53.1603
RA_OF_ASC_NODE = 229.7251
ARG_OF_PERICENTER = 76.0354
MEAN_ANOMALY   = 284.0728

EPHEMERIS_TYPE = 0
CLASSIFICATION_TYPE = U
NORAD_CAT_ID   = 68337
ELEMENT_SET_NO = 999
REV_AT_EPOCH   = 217
BSTAR          = .11642482E-2
MEAN_MOTION_DOT = .236429E-2
MEAN_MOTION_DDOT = 0

CCSDS_OMM_VERS = 2.0
CREATION_DATE  = 
ORIGINATOR     = 

OBJECT_NAME    = STARLINK-36254
OBJECT_ID      = 2026-059T
CENTER_NAME    = EARTH
REF_FRAME      = TEME
TIME_SYSTEM    = UTC
MEAN_ELEMENT_THEORY = SGP/SGP4

EPOCH          = 2026-04-05T04:00:01.999584
MEAN_MOTION    = 15.80880616
ECCENTRICITY   = .00015985
INCLINATION    = 53.1596
RA_OF_ASC_NODE = 230.0401
ARG_OF_PERICENTER = 126.9186
MEAN_ANOMALY   = 223.4781

EPHEMERIS_TYPE = 0
CLASSIFICATION_TYPE = U
NORAD_CAT_ID   = 68338
ELEMENT_SET_NO = 999
REV_AT_EPOCH   = 329
BSTAR          = .78223001E-3
MEAN_MOTION_DOT = .156574E-2
MEAN_MOTION_DDOT = 0

CCSDS_OMM_VERS = 2.0
CREATION_DATE  = 
ORIGINATOR     = 

OBJECT_NAME    = STARLINK-37200
OBJECT_ID      = 2026-059U
CENTER_NAME    = EARTH
REF_FRAME      = TEME
TIME_SYSTEM    = UTC
MEAN_ELEMENT_THEORY = SGP/SGP4

EPOCH          = 2026-04-05T04:00:01.999584
MEAN_MOTION    = 15.80882467
ECCENTRICITY   = .00012966
INCLINATION    = 53.1599
RA_OF_ASC_NODE = 230.0490
ARG_OF_PERICENTER = 55.9587
MEAN_ANOMALY   = 290.2338

EPHEMERIS_TYPE = 0
CLASSIFICATION_TYPE = U
NORAD_CAT_ID   = 68339
ELEMENT_SET_NO = 999
REV_AT_EPOCH   = 329
BSTAR          = .32939989E-3
MEAN_MOTION_DOT = .64832E-3
MEAN_MOTION_DDOT = 0

CCSDS_OMM_VERS = 2.0
CREATION_DATE  = 
ORIGINATOR     = 

OBJECT_NAME    = STARLINK-37185
OBJECT_ID      = 2026-059V
CENTER_NAME    = EARTH
REF_FRAME      = TEME
TIME_SYSTEM    = UTC
MEAN_ELEMENT_THEORY = SGP/SGP4

EPOCH          = 2026-04-05T04:00:01.999584
MEAN_MOTION    = 15.80894434
ECCENTRICITY   = .00007763
INCLINATION    = 53.1597
RA_OF_ASC_NODE = 230.0311
ARG_OF_PERICENTER = 71.4249
MEAN_ANOMALY   = 283.3083

EPHEMERIS_TYPE = 0
CLASSIFICATION_TYPE = U
NORAD_CAT_ID   = 68340
ELEMENT_SET_NO = 999
REV_AT_EPOCH   = 329
BSTAR          = .25164573E-3
MEAN_MOTION_DOT = .493E-3
MEAN_MOTION_DDOT = 0

CCSDS_OMM_VERS = 2.0
CREATION_DATE  = 
ORIGINATOR     = 

OBJECT_NAME    = STARLINK-37181
OBJECT_ID      = 2026-059W
CENTER_NAME    = EARTH
REF_FRAME      = TEME
TIME_SYSTEM    = UTC
MEAN_ELEMENT_THEORY = SGP/SGP4

EPOCH          = 2026-04-05T04:00:01.999584
MEAN_MOTION    = 15.80892179
ECCENTRICITY   = .00012086
INCLINATION    = 53.1598
RA_OF_ASC_NODE = 230.0224
ARG_OF_PERICENTER = 113.9495
MEAN_ANOMALY   = 245.0616

EPHEMERIS_TYPE = 0
CLASSIFICATION_TYPE = U
NORAD_CAT_ID   = 68341
ELEMENT_SET_NO = 999
REV_AT_EPOCH   = 329
BSTAR          = .22371582E-3
MEAN_MOTION_DOT = .43718E-3
MEAN_MOTION_DDOT = 0

CCSDS_OMM_VERS = 2.0
CREATION_DATE  = 
ORIGINATOR     = 

OBJECT_NAME    = STARLINK-37192
OBJECT_ID      = 2026-059X
CENTER_NAME    = EARTH
REF_FRAME      = TEME
TIME_SYSTEM    = UTC
MEAN_ELEMENT_THEORY = SGP/SGP4

EPOCH          = 2026-04-05T04:00:01.999584
MEAN_MOTION    = 15.80904122
ECCENTRICITY   = .00007283
INCLINATION    = 53.1596
RA_OF_ASC_NODE = 230.0047
ARG_OF_PERICENTER = 14.3042
MEAN_ANOMALY   = 353.2425

EPHEMERIS_TYPE = 0
CLASSIFICATION_TYPE = U
NORAD_CAT_ID   = 68342
ELEMENT_SET_NO = 999
REV_AT_EPOCH   = 329
BSTAR          = .14114443E-3
MEAN_MOTION_DOT = .27286E-3
MEAN_MOTION_DDOT = 0

